YAM-10                  
1 64580U 25135BE  26194.30336500  .00000782  00000+0  82887-4 0  9994
2 64580  97.7751 307.7963 0001669 258.1788 101.9243 14.91897460 57750
YAM-11                  
1 68991U 26100M   26194.30203440  .00000716  00000+0  78761-4 0  9996
2 68991  97.7338  91.1149 0009821   7.6264 352.5102 14.90567048 10588
YAM-16                  
1 68992U 26100N   26194.51733150  .00000884  00000+0  93759-4 0  9996
2 68992  97.7340  91.4511 0004816  66.1857 293.9866 14.91512058 10627
YAM-13                  
1 68993U 26100P   26194.39148801  .00000879  00000+0  95842-4 0  9995
2 68993  97.7340  91.3079 0009769   4.7137 355.4171 14.90407652 10600
YAM-15                  
1 68997U 26100T   26194.51254037  .00000785  00000+0  85643-4 0  9996
2 68997  97.7332  91.4507 0009571  17.6313 342.5236 14.90650364 10623
YAM-12                  
1 69003U 26100Z   26194.15077682  .00002148  00000+0  22593-3 0  9993
2 69003  97.7327  90.9856 0010114 357.3550   2.7613 14.90421509 10552
YAM-14                  
1 69008U 26100AE  26194.14357461  .00000812  00000+0  89121-4 0  9990
2 69008  97.7320  91.0014 0006237  42.5235 317.6465 14.90344498 10556
