{"fetched_at":"2026-07-13T18:17:27.143Z","source":"https://celestrak.org/NORAD/elements/gp.php?NAME=YAM&FORMAT=JSON","constellation":"earthdaily-constellation","records":[{"OBJECT_NAME":"YAM-10","OBJECT_ID":"2025-135BE","EPOCH":"2026-07-13T07:16:50.736864","CLASSIFICATION_TYPE":"U","MEAN_MOTION":14.9189746,"ECCENTRICITY":0.0001669,"INCLINATION":97.7751,"RA_OF_ASC_NODE":307.7963,"ARG_OF_PERICENTER":258.1788,"MEAN_ANOMALY":101.9243,"EPHEMERIS_TYPE":0,"NORAD_CAT_ID":64580,"ELEMENT_SET_NO":999,"REV_AT_EPOCH":5775,"BSTAR":0.000082887368,"MEAN_MOTION_DOT":0.00000782,"MEAN_MOTION_DDOT":0},{"OBJECT_NAME":"YAM-11","OBJECT_ID":"2026-100M","EPOCH":"2026-07-13T07:14:55.772160","CLASSIFICATION_TYPE":"U","MEAN_MOTION":14.90567048,"ECCENTRICITY":0.0009821,"INCLINATION":97.7338,"RA_OF_ASC_NODE":91.1149,"ARG_OF_PERICENTER":7.6264,"MEAN_ANOMALY":352.5102,"EPHEMERIS_TYPE":0,"NORAD_CAT_ID":68991,"ELEMENT_SET_NO":999,"REV_AT_EPOCH":1058,"BSTAR":0.000078761,"MEAN_MOTION_DOT":0.00000716,"MEAN_MOTION_DDOT":0},{"OBJECT_NAME":"YAM-16","OBJECT_ID":"2026-100N","EPOCH":"2026-07-13T12:24:57.441600","CLASSIFICATION_TYPE":"U","MEAN_MOTION":14.91512058,"ECCENTRICITY":0.0004816,"INCLINATION":97.734,"RA_OF_ASC_NODE":91.4511,"ARG_OF_PERICENTER":66.1857,"MEAN_ANOMALY":293.9866,"EPHEMERIS_TYPE":0,"NORAD_CAT_ID":68992,"ELEMENT_SET_NO":999,"REV_AT_EPOCH":1062,"BSTAR":0.000093759,"MEAN_MOTION_DOT":0.00000884,"MEAN_MOTION_DDOT":0},{"OBJECT_NAME":"YAM-13","OBJECT_ID":"2026-100P","EPOCH":"2026-07-13T09:23:44.564064","CLASSIFICATION_TYPE":"U","MEAN_MOTION":14.90407652,"ECCENTRICITY":0.0009769,"INCLINATION":97.734,"RA_OF_ASC_NODE":91.3079,"ARG_OF_PERICENTER":4.7137,"MEAN_ANOMALY":355.4171,"EPHEMERIS_TYPE":0,"NORAD_CAT_ID":68993,"ELEMENT_SET_NO":999,"REV_AT_EPOCH":1060,"BSTAR":0.000095842,"MEAN_MOTION_DOT":0.00000879,"MEAN_MOTION_DDOT":0},{"OBJECT_NAME":"YAM-15","OBJECT_ID":"2026-100T","EPOCH":"2026-07-13T12:18:03.487968","CLASSIFICATION_TYPE":"U","MEAN_MOTION":14.90650364,"ECCENTRICITY":0.0009571,"INCLINATION":97.7332,"RA_OF_ASC_NODE":91.4507,"ARG_OF_PERICENTER":17.6313,"MEAN_ANOMALY":342.5236,"EPHEMERIS_TYPE":0,"NORAD_CAT_ID":68997,"ELEMENT_SET_NO":999,"REV_AT_EPOCH":1062,"BSTAR":0.000085643,"MEAN_MOTION_DOT":0.00000785,"MEAN_MOTION_DDOT":0},{"OBJECT_NAME":"YAM-12","OBJECT_ID":"2026-100Z","EPOCH":"2026-07-13T03:37:07.117248","CLASSIFICATION_TYPE":"U","MEAN_MOTION":14.90421509,"ECCENTRICITY":0.0010114,"INCLINATION":97.7327,"RA_OF_ASC_NODE":90.9856,"ARG_OF_PERICENTER":357.355,"MEAN_ANOMALY":2.7613,"EPHEMERIS_TYPE":0,"NORAD_CAT_ID":69003,"ELEMENT_SET_NO":999,"REV_AT_EPOCH":1055,"BSTAR":0.0002259269,"MEAN_MOTION_DOT":0.00002148,"MEAN_MOTION_DDOT":0},{"OBJECT_NAME":"YAM-14","OBJECT_ID":"2026-100AE","EPOCH":"2026-07-13T03:26:44.846304","CLASSIFICATION_TYPE":"U","MEAN_MOTION":14.90344498,"ECCENTRICITY":0.00062377,"INCLINATION":97.732,"RA_OF_ASC_NODE":91.0014,"ARG_OF_PERICENTER":42.5235,"MEAN_ANOMALY":317.6465,"EPHEMERIS_TYPE":0,"NORAD_CAT_ID":69008,"ELEMENT_SET_NO":999,"REV_AT_EPOCH":1055,"BSTAR":0.000089120716,"MEAN_MOTION_DOT":0.00000812,"MEAN_MOTION_DDOT":0}]}
